{
  "type": "FeatureCollection",
  "features": [
    {
      "type": "Feature",
      "properties": {
        "norad_id": 55973,
        "name": "TIANMU-1 03",
        "group": "weather",
        "lat": 72.59556925533813,
        "lon": 132.20938684322067,
        "alt_km": 433.5326847498991,
        "timestamp": "2025-12-20T05:41:49.661399+00:00",
        "meta_object_name": "TIANMU-1 03",
        "meta_object_id": "2023-039A",
        "meta_epoch": "2025-12-19T21:35:05.186976",
        "meta_mean_motion": 15.41120795,
        "meta_eccentricity": 0.00040941,
        "meta_inclination": 97.5103,
        "meta_ra_of_asc_node": 156.7516,
        "meta_arg_of_pericenter": 40.4854,
        "meta_mean_anomaly": 319.6696,
        "meta_ephemeris_type": 0,
        "meta_classification_type": "U",
        "meta_norad_cat_id": 55973,
        "meta_element_set_no": 999,
        "meta_rev_at_epoch": 15316,
        "meta_bstar": 0.00026286438,
        "meta_mean_motion_dot": 0.00010799,
        "meta_mean_motion_ddot": 0,
        "tle_line1": "1 55973U 23039A   25353.89936559  .00010799  00000+0  26286-3 0  9990",
        "tle_line2": "2 55973  97.5103 156.7516 0004094  40.4854 319.6696 15.41120795153160"
      },
      "geometry": {
        "type": "Point",
        "coordinates": [
          132.20938684322067,
          72.59556925533813
        ]
      }
    },
    {
      "type": "Feature",
      "properties": {
        "norad_id": 55974,
        "name": "TIANMU-1 04",
        "group": "weather",
        "lat": -17.34337765300808,
        "lon": -26.072228218467654,
        "alt_km": 449.91799862807693,
        "timestamp": "2025-12-20T05:41:49.661412+00:00",
        "meta_object_name": "TIANMU-1 04",
        "meta_object_id": "2023-039B",
        "meta_epoch": "2025-12-19T22:36:42.471936",
        "meta_mean_motion": 15.41462598,
        "meta_eccentricity": 0.00047079,
        "meta_inclination": 97.5036,
        "meta_ra_of_asc_node": 155.9836,
        "meta_arg_of_pericenter": 34.5946,
        "meta_mean_anomaly": 325.5606,
        "meta_ephemeris_type": 0,
        "meta_classification_type": "U",
        "meta_norad_cat_id": 55974,
        "meta_element_set_no": 999,
        "meta_rev_at_epoch": 15317,
        "meta_bstar": 0.00026356344,
        "meta_mean_motion_dot": 0.00010953,
        "meta_mean_motion_ddot": 0,
        "tle_line1": "1 55974U 23039B   25353.94215824  .00010953  00000+0  26356-3 0  9992",
        "tle_line2": "2 55974  97.5036 155.9836 0004707  34.5946 325.5606 15.41462598153177"
      },
      "geometry": {
        "type": "Point",
        "coordinates": [
          -26.072228218467654,
          -17.34337765300808
        ]
      }
    },
    {
      "type": "Feature",
      "properties": {
        "norad_id": 55975,
        "name": "TIANMU-1 05",
        "group": "weather",
        "lat": -38.696818634569006,
        "lon": -29.285064016106045,
        "alt_km": 452.1164682645813,
        "timestamp": "2025-12-20T05:41:49.661423+00:00",
        "meta_object_name": "TIANMU-1 05",
        "meta_object_id": "2023-039C",
        "meta_epoch": "2025-12-19T22:30:59.436288",
        "meta_mean_motion": 15.41079612,
        "meta_eccentricity": 0.00041448,
        "meta_inclination": 97.5082,
        "meta_ra_of_asc_node": 156.4723,
        "meta_arg_of_pericenter": 58.6971,
        "meta_mean_anomaly": 301.4681,
        "meta_ephemeris_type": 0,
        "meta_classification_type": "U",
        "meta_norad_cat_id": 55975,
        "meta_element_set_no": 999,
        "meta_rev_at_epoch": 15315,
        "meta_bstar": 0.00027241768,
        "meta_mean_motion_dot": 0.0001118,
        "meta_mean_motion_ddot": 0,
        "tle_line1": "1 55975U 23039C   25353.93818792  .00011180  00000+0  27242-3 0  9993",
        "tle_line2": "2 55975  97.5082 156.4723 0004144  58.6971 301.4681 15.41079612153155"
      },
      "geometry": {
        "type": "Point",
        "coordinates": [
          -29.285064016106045,
          -38.696818634569006
        ]
      }
    },
    {
      "type": "Feature",
      "properties": {
        "norad_id": 55976,
        "name": "TIANMU-1 06",
        "group": "weather",
        "lat": -6.805369475433862,
        "lon": -23.651076157654682,
        "alt_km": 447.70954024654384,
        "timestamp": "2025-12-20T05:41:49.661433+00:00",
        "meta_object_name": "TIANMU-1 06",
        "meta_object_id": "2023-039D",
        "meta_epoch": "2025-12-19T22:39:29.514240",
        "meta_mean_motion": 15.41514113,
        "meta_eccentricity": 0.00044392,
        "meta_inclination": 97.5093,
        "meta_ra_of_asc_node": 156.9493,
        "meta_arg_of_pericenter": 53.0748,
        "meta_mean_anomaly": 307.0904,
        "meta_ephemeris_type": 0,
        "meta_classification_type": "U",
        "meta_norad_cat_id": 55976,
        "meta_element_set_no": 999,
        "meta_rev_at_epoch": 15317,
        "meta_bstar": 0.00026090252,
        "meta_mean_motion_dot": 0.0001086,
        "meta_mean_motion_ddot": 0,
        "tle_line1": "1 55976U 23039D   25353.94409160  .00010860  00000+0  26090-3 0  9994",
        "tle_line2": "2 55976  97.5093 156.9493 0004439  53.0748 307.0904 15.41514113153177"
      },
      "geometry": {
        "type": "Point",
        "coordinates": [
          -23.651076157654682,
          -6.805369475433862
        ]
      }
    },
    {
      "type": "Feature",
      "properties": {
        "norad_id": 56232,
        "name": "FENGYUN 3G",
        "group": "weather",
        "lat": -41.10691051375729,
        "lon": 141.61957929006317,
        "alt_km": 411.97504497019236,
        "timestamp": "2025-12-20T05:41:49.661447+00:00",
        "meta_object_name": "FENGYUN 3G",
        "meta_object_id": "2023-055A",
        "meta_epoch": "2025-12-19T22:14:07.766592",
        "meta_mean_motion": 15.54051193,
        "meta_eccentricity": 0.00093146,
        "meta_inclination": 49.9918,
        "meta_ra_of_asc_node": 190.3568,
        "meta_arg_of_pericenter": 180.8732,
        "meta_mean_anomaly": 179.2221,
        "meta_ephemeris_type": 0,
        "meta_classification_type": "U",
        "meta_norad_cat_id": 56232,
        "meta_element_set_no": 999,
        "meta_rev_at_epoch": 15214,
        "meta_bstar": 0.0003256242,
        "meta_mean_motion_dot": 0.00021141,
        "meta_mean_motion_ddot": 0,
        "tle_line1": "1 56232U 23055A   25353.92647878  .00021141  00000+0  32562-3 0  9991",
        "tle_line2": "2 56232  49.9918 190.3568 0009314 180.8732 179.2221 15.54051193152149"
      },
      "geometry": {
        "type": "Point",
        "coordinates": [
          141.61957929006317,
          -41.10691051375729
        ]
      }
    },
    {
      "type": "Feature",
      "properties": {
        "norad_id": 57166,
        "name": "METEOR-M2 3",
        "group": "weather",
        "lat": 37.293205991342624,
        "lon": -125.70739550825398,
        "alt_km": 811.3252704688621,
        "timestamp": "2025-12-20T05:41:49.661457+00:00",
        "meta_object_name": "METEOR-M2 3",
        "meta_object_id": "2023-091A",
        "meta_epoch": "2025-12-19T22:17:12.274656",
        "meta_mean_motion": 14.24026894,
        "meta_eccentricity": 0.00034996,
        "meta_inclination": 98.6367,
        "meta_ra_of_asc_node": 47.3421,
        "meta_arg_of_pericenter": 347.3826,
        "meta_mean_anomaly": 12.7265,
        "meta_ephemeris_type": 0,
        "meta_classification_type": "U",
        "meta_norad_cat_id": 57166,
        "meta_element_set_no": 999,
        "meta_rev_at_epoch": 12900,
        "meta_bstar": 2.4272361e-05,
        "meta_mean_motion_dot": 1.2e-07,
        "meta_mean_motion_ddot": 0,
        "tle_line1": "1 57166U 23091A   25353.92861429  .00000012  00000+0  24272-4 0  9992",
        "tle_line2": "2 57166  98.6367  47.3421 0003499 347.3826  12.7265 14.24026894129000"
      },
      "geometry": {
        "type": "Point",
        "coordinates": [
          -125.70739550825398,
          37.293205991342624
        ]
      }
    },
    {
      "type": "Feature",
      "properties": {
        "norad_id": 57399,
        "name": "TIANMU-1 07",
        "group": "weather",
        "lat": -72.59272992095475,
        "lon": -160.165590235505,
        "alt_km": 492.1794532870199,
        "timestamp": "2025-12-20T05:41:49.661468+00:00",
        "meta_object_name": "TIANMU-1 07",
        "meta_object_id": "2023-101A",
        "meta_epoch": "2025-12-19T22:18:08.921088",
        "meta_mean_motion": 15.28167541,
        "meta_eccentricity": 0.00053186,
        "meta_inclination": 97.2868,
        "meta_ra_of_asc_node": 43.6208,
        "meta_arg_of_pericenter": 63.2607,
        "meta_mean_anomaly": 296.9176,
        "meta_ephemeris_type": 0,
        "meta_classification_type": "U",
        "meta_norad_cat_id": 57399,
        "meta_element_set_no": 999,
        "meta_rev_at_epoch": 13425,
        "meta_bstar": 0.00018174024,
        "meta_mean_motion_dot": 4.918e-05,
        "meta_mean_motion_ddot": 0,
        "tle_line1": "1 57399U 23101A   25353.92926992  .00004918  00000+0  18174-3 0  9991",
        "tle_line2": "2 57399  97.2868  43.6208 0005318  63.2607 296.9176 15.28167541134254"
      },
      "geometry": {
        "type": "Point",
        "coordinates": [
          -160.165590235505,
          -72.59272992095475
        ]
      }
    }
  ]
}